{
  "type": "FeatureCollection",
  "features": [
    {
      "type": "Feature",
      "properties": {
        "norad_id": 30683,
        "name": "FENGYUN 1C DEB",
        "group": "fengyun-1c-debris",
        "lat": -45.14134622437594,
        "lon": 23.50821516660152,
        "alt_km": 964.1898515760658,
        "timestamp": "2025-12-27T22:26:48.881179+00:00",
        "meta_object_name": "FENGYUN 1C DEB",
        "meta_object_id": "1999-025AQR",
        "meta_epoch": "2025-12-25T13:06:58.710240",
        "meta_mean_motion": 14.00429844,
        "meta_eccentricity": 0.0138248,
        "meta_inclination": 99.4266,
        "meta_ra_of_asc_node": 11.4351,
        "meta_arg_of_pericenter": 189.5826,
        "meta_mean_anomaly": 326.7246,
        "meta_ephemeris_type": 0,
        "meta_classification_type": "U",
        "meta_norad_cat_id": 30683,
        "meta_element_set_no": 999,
        "meta_rev_at_epoch": 95730,
        "meta_bstar": 0.001076,
        "meta_mean_motion_dot": 1.686e-05,
        "meta_mean_motion_ddot": 0,
        "tle_line1": "1 30683U 99025AQR 25359.54651285  .00001686  00000+0  10760-2 0  9991",
        "tle_line2": "2 30683  99.4266  11.4351 0138248 189.5826 326.7246 14.00429844957308"
      },
      "geometry": {
        "type": "Point",
        "coordinates": [
          23.50821516660152,
          -45.14134622437594
        ]
      }
    },
    {
      "type": "Feature",
      "properties": {
        "norad_id": 30684,
        "name": "FENGYUN 1C DEB",
        "group": "fengyun-1c-debris",
        "lat": 80.46196766309086,
        "lon": -47.90449638650772,
        "alt_km": 1135.8455288925206,
        "timestamp": "2025-12-27T22:26:48.881189+00:00",
        "meta_object_name": "FENGYUN 1C DEB",
        "meta_object_id": "1999-025AQS",
        "meta_epoch": "2025-12-25T13:46:12.707616",
        "meta_mean_motion": 13.66832566,
        "meta_eccentricity": 0.023623,
        "meta_inclination": 99.5309,
        "meta_ra_of_asc_node": 40.7807,
        "meta_arg_of_pericenter": 236.4133,
        "meta_mean_anomaly": 121.4261,
        "meta_ephemeris_type": 0,
        "meta_classification_type": "U",
        "meta_norad_cat_id": 30684,
        "meta_element_set_no": 999,
        "meta_rev_at_epoch": 93804,
        "meta_bstar": 0.0010195,
        "meta_mean_motion_dot": 9.85e-06,
        "meta_mean_motion_ddot": 0,
        "tle_line1": "1 30684U 99025AQS 25359.57375819  .00000985  00000+0  10195-2 0  9994",
        "tle_line2": "2 30684  99.5309  40.7807 0236230 236.4133 121.4261 13.66832566938049"
      },
      "geometry": {
        "type": "Point",
        "coordinates": [
          -47.90449638650772,
          80.46196766309086
        ]
      }
    },
    {
      "type": "Feature",
      "properties": {
        "norad_id": 30686,
        "name": "FENGYUN 1C DEB",
        "group": "fengyun-1c-debris",
        "lat": 52.54284740839727,
        "lon": 29.54581231642033,
        "alt_km": 581.3513167632518,
        "timestamp": "2025-12-27T22:26:48.881199+00:00",
        "meta_object_name": "FENGYUN 1C DEB",
        "meta_object_id": "1999-025AQU",
        "meta_epoch": "2025-12-27T12:14:58.412256",
        "meta_mean_motion": 14.74026808,
        "meta_eccentricity": 0.0143982,
        "meta_inclination": 99.0332,
        "meta_ra_of_asc_node": 197.0883,
        "meta_arg_of_pericenter": 74.8553,
        "meta_mean_anomaly": 316.9214,
        "meta_ephemeris_type": 0,
        "meta_classification_type": "U",
        "meta_norad_cat_id": 30686,
        "meta_element_set_no": 999,
        "meta_rev_at_epoch": 99819,
        "meta_bstar": 0.00069519,
        "meta_mean_motion_dot": 5.334e-05,
        "meta_mean_motion_ddot": 0,
        "tle_line1": "1 30686U 99025AQU 25361.51039829  .00005334  00000+0  69519-3 0  9999",
        "tle_line2": "2 30686  99.0332 197.0883 0143982  74.8553 316.9214 14.74026808998198"
      },
      "geometry": {
        "type": "Point",
        "coordinates": [
          29.54581231642033,
          52.54284740839727
        ]
      }
    },
    {
      "type": "Feature",
      "properties": {
        "norad_id": 30688,
        "name": "FENGYUN 1C DEB",
        "group": "fengyun-1c-debris",
        "lat": -9.99482271789547,
        "lon": 76.91768535931826,
        "alt_km": 784.7591567351183,
        "timestamp": "2025-12-27T22:26:48.881208+00:00",
        "meta_object_name": "FENGYUN 1C DEB",
        "meta_object_id": "1999-025AQW",
        "meta_epoch": "2025-12-27T04:22:30.573984",
        "meta_mean_motion": 14.32819604,
        "meta_eccentricity": 0.00160577,
        "meta_inclination": 98.6998,
        "meta_ra_of_asc_node": 74.6156,
        "meta_arg_of_pericenter": 270.5024,
        "meta_mean_anomaly": 157.4926,
        "meta_ephemeris_type": 0,
        "meta_classification_type": "U",
        "meta_norad_cat_id": 30688,
        "meta_element_set_no": 999,
        "meta_rev_at_epoch": 97467,
        "meta_bstar": 0.0018910642,
        "meta_mean_motion_dot": 5.123e-05,
        "meta_mean_motion_ddot": 0,
        "tle_line1": "1 30688U 99025AQW 25361.18229831  .00005123  00000+0  18911-2 0  9993",
        "tle_line2": "2 30688  98.6998  74.6156 0016057 270.5024 157.4926 14.32819604974679"
      },
      "geometry": {
        "type": "Point",
        "coordinates": [
          76.91768535931826,
          -9.99482271789547
        ]
      }
    },
    {
      "type": "Feature",
      "properties": {
        "norad_id": 30689,
        "name": "FENGYUN 1C DEB",
        "group": "fengyun-1c-debris",
        "lat": -78.25185881254338,
        "lon": 35.21164737628401,
        "alt_km": 924.4067765281961,
        "timestamp": "2025-12-27T22:26:48.881218+00:00",
        "meta_object_name": "FENGYUN 1C DEB",
        "meta_object_id": "1999-025AQX",
        "meta_epoch": "2025-12-27T11:30:26.125056",
        "meta_mean_motion": 14.11790201,
        "meta_eccentricity": 0.0111722,
        "meta_inclination": 98.7095,
        "meta_ra_of_asc_node": 347.2857,
        "meta_arg_of_pericenter": 61.8017,
        "meta_mean_anomaly": 61.5286,
        "meta_ephemeris_type": 0,
        "meta_classification_type": "U",
        "meta_norad_cat_id": 30689,
        "meta_element_set_no": 999,
        "meta_rev_at_epoch": 97098,
        "meta_bstar": 0.0004905,
        "meta_mean_motion_dot": 9.07e-06,
        "meta_mean_motion_ddot": 0,
        "tle_line1": "1 30689U 99025AQX 25361.47946904  .00000907  00000+0  49050-3 0  9997",
        "tle_line2": "2 30689  98.7095 347.2857 0111722  61.8017  61.5286 14.11790201970986"
      },
      "geometry": {
        "type": "Point",
        "coordinates": [
          35.21164737628401,
          -78.25185881254338
        ]
      }
    },
    {
      "type": "Feature",
      "properties": {
        "norad_id": 30690,
        "name": "FENGYUN 1C DEB",
        "group": "fengyun-1c-debris",
        "lat": 7.336919878278766,
        "lon": 113.60000581598821,
        "alt_km": 943.6150244707987,
        "timestamp": "2025-12-27T22:26:48.881228+00:00",
        "meta_object_name": "FENGYUN 1C DEB",
        "meta_object_id": "1999-025AQY",
        "meta_epoch": "2025-12-27T01:37:14.166048",
        "meta_mean_motion": 14.02393272,
        "meta_eccentricity": 0.01049655,
        "meta_inclination": 99.1593,
        "meta_ra_of_asc_node": 291.5376,
        "meta_arg_of_pericenter": 36.9188,
        "meta_mean_anomaly": 76.1099,
        "meta_ephemeris_type": 0,
        "meta_classification_type": "U",
        "meta_norad_cat_id": 30690,
        "meta_element_set_no": 999,
        "meta_rev_at_epoch": 95908,
        "meta_bstar": 0.0020099553,
        "meta_mean_motion_dot": 3.196e-05,
        "meta_mean_motion_ddot": 0,
        "tle_line1": "1 30690U 99025AQY 25361.06752507  .00003196  00000+0  20100-2 0  9995",
        "tle_line2": "2 30690  99.1593 291.5376 0104965  36.9188  76.1099 14.02393272959085"
      },
      "geometry": {
        "type": "Point",
        "coordinates": [
          113.60000581598821,
          7.336919878278766
        ]
      }
    },
    {
      "type": "Feature",
      "properties": {
        "norad_id": 30691,
        "name": "FENGYUN 1C DEB",
        "group": "fengyun-1c-debris",
        "lat": -2.422613711482383,
        "lon": -167.95034412450056,
        "alt_km": 832.8329919891985,
        "timestamp": "2025-12-27T22:26:48.881238+00:00",
        "meta_object_name": "FENGYUN 1C DEB",
        "meta_object_id": "1999-025AQZ",
        "meta_epoch": "2025-12-25T13:10:12.042336",
        "meta_mean_motion": 13.89468034,
        "meta_eccentricity": 0.0139659,
        "meta_inclination": 98.7427,
        "meta_ra_of_asc_node": 10.181,
        "meta_arg_of_pericenter": 198.0062,
        "meta_mean_anomaly": 293.4196,
        "meta_ephemeris_type": 0,
        "meta_classification_type": "U",
        "meta_norad_cat_id": 30691,
        "meta_element_set_no": 999,
        "meta_rev_at_epoch": 95294,
        "meta_bstar": 0.001004,
        "meta_mean_motion_dot": 1.286e-05,
        "meta_mean_motion_ddot": 0,
        "tle_line1": "1 30691U 99025AQZ 25359.54875049  .00001286  00000+0  10040-2 0  9993",
        "tle_line2": "2 30691  98.7427  10.1810 0139659 198.0062 293.4196 13.89468034952947"
      },
      "geometry": {
        "type": "Point",
        "coordinates": [
          -167.95034412450056,
          -2.422613711482383
        ]
      }
    }
  ]
}